STARLINK-36335
1 68015U 26040A   26090.83335647 -.01909667  00000+0 -21305-1 0  9999
2 68015  97.2854  40.3551 0001932 102.0395 117.4455 15.65815910  5946
